[{"OBJECT_NAME":"TIANMU-1 14","OBJECT_ID":"2023-205D","EPOCH":"2026-03-09T23:38:37.144032","MEAN_MOTION":15.2583937,"ECCENTRICITY":0.00072842,"INCLINATION":97.35,"RA_OF_ASC_NODE":91.4174,"ARG_OF_PERICENTER":335.7472,"MEAN_ANOMALY":24.3423,"EPHEMERIS_TYPE":0,"CLASSIFICATION_TYPE":"U","NORAD_CAT_ID":58648,"ELEMENT_SET_NO":999,"REV_AT_EPOCH":12237,"BSTAR":0.00030290643,"MEAN_MOTION_DOT":7.686e-5,"MEAN_MOTION_DDOT":0},{"OBJECT_NAME":"STARLINK-31198","OBJECT_ID":"2024-019Q","EPOCH":"2026-03-09T11:42:00.902880","MEAN_MOTION":15.27578083,"ECCENTRICITY":0.00011995,"INCLINATION":43.0012,"RA_OF_ASC_NODE":249.8639,"ARG_OF_PERICENTER":269.7146,"MEAN_ANOMALY":90.3568,"EPHEMERIS_TYPE":0,"CLASSIFICATION_TYPE":"U","NORAD_CAT_ID":58867,"ELEMENT_SET_NO":999,"REV_AT_EPOCH":11903,"BSTAR":1.2875094e-5,"MEAN_MOTION_DOT":9.2e-7,"MEAN_MOTION_DDOT":0}]
